{"type": "FeatureCollection", "features": [{"type": "Feature", "properties": {"norad_id": 2807, "name": "OPS 7218 (TRANSIT 16)", "group": "nnss", "lat": 72.96924664121305, "lon": 173.20677786941687, "alt_km": 1048.5267213814068, "timestamp": "2025-12-04T23:34:05.991007+00:00", "meta": {"OBJECT_NAME": "OPS 7218 (TRANSIT 16)", "OBJECT_ID": "1967-048A", "EPOCH": "2025-12-04T14:45:28.535040", "MEAN_MOTION": 13.50719929, "ECCENTRICITY": 0.0021535, "INCLINATION": 89.6734, "RA_OF_ASC_NODE": 354.2858, "ARG_OF_PERICENTER": 135.9479, "MEAN_ANOMALY": 347.1684, "EPHEMERIS_TYPE": 0, "CLASSIFICATION_TYPE": "U", "NORAD_CAT_ID": 2807, "ELEMENT_SET_NO": 999, "REV_AT_EPOCH": 88166, "BSTAR": 0.00025282, "MEAN_MOTION_DOT": 1.73e-06, "MEAN_MOTION_DDOT": 0}, "tle": {"line1": "1 02807U 67048A   25338.61491360  .00000173  00000+0  25282-3 0  9995", "line2": "2 02807  89.6734 354.2858 0021535 135.9479 347.1684 13.50719929881663"}}, "geometry": {"type": "Point", "coordinates": [173.20677786941687, 72.96924664121305]}}, {"type": "Feature", "properties": {"norad_id": 2965, "name": "OPS 4947 (TRANSIT 17)", "group": "nnss", "lat": 84.67345568506637, "lon": -163.04364096451266, "alt_km": 1084.6787745263746, "timestamp": "2025-12-04T23:34:05.991031+00:00", "meta": {"OBJECT_NAME": "OPS 4947 (TRANSIT 17)", "OBJECT_ID": "1967-092A", "EPOCH": "2025-12-04T16:36:25.782912", "MEAN_MOTION": 13.5345065, "ECCENTRICITY": 0.0045821, "INCLINATION": 89.2505, "RA_OF_ASC_NODE": 25.0492, "ARG_OF_PERICENTER": 258.6962, "MEAN_ANOMALY": 224.3284, "EPHEMERIS_TYPE": 0, "CLASSIFICATION_TYPE": "U", "NORAD_CAT_ID": 2965, "ELEMENT_SET_NO": 999, "REV_AT_EPOCH": 86988, "BSTAR": 0.00029336, "MEAN_MOTION_DOT": 2.09e-06, "MEAN_MOTION_DDOT": 0}, "tle": {"line1": "1 02965U 67092A   25338.69196508  .00000209  00000+0  29336-3 0  9997", "line2": "2 02965  89.2505  25.0492 0045821 258.6962 224.3284 13.53450650869889"}}, "geometry": {"type": "Point", "coordinates": [-163.04364096451266, 84.67345568506637]}}, {"type": "Feature", "properties": {"norad_id": 3133, "name": "OPS 7034 (TRANSIT 18)", "group": "nnss", "lat": -61.977001796227384, "lon": -86.33205979066655, "alt_km": 1088.7438821385385, "timestamp": "2025-12-04T23:34:05.991046+00:00", "meta": {"OBJECT_NAME": "OPS 7034 (TRANSIT 18)", "OBJECT_ID": "1968-012A", "EPOCH": "2025-12-04T14:04:32.594304", "MEAN_MOTION": 13.51562987, "ECCENTRICITY": 0.0073087, "INCLINATION": 90.027, "RA_OF_ASC_NODE": 273.6161, "ARG_OF_PERICENTER": 192.8597, "MEAN_ANOMALY": 341.0846, "EPHEMERIS_TYPE": 0, "CLASSIFICATION_TYPE": "U", "NORAD_CAT_ID": 3133, "ELEMENT_SET_NO": 999, "REV_AT_EPOCH": 56808, "BSTAR": 0.00024398, "MEAN_MOTION_DOT": 1.71e-06, "MEAN_MOTION_DDOT": 0}, "tle": {"line1": "1 03133U 68012A   25338.58648836  .00000171  00000+0  24398-3 0  9993", "line2": "2 03133  90.0270 273.6161 0073087 192.8597 341.0846 13.51562987568082"}}, "geometry": {"type": "Point", "coordinates": [-86.33205979066655, -61.977001796227384]}}, {"type": "Feature", "properties": {"norad_id": 4507, "name": "NNSS 19 (TRANSIT 19)", "group": "nnss", "lat": -85.55398820838496, "lon": -125.3995766896945, "alt_km": 978.6543185532573, "timestamp": "2025-12-04T23:34:05.991059+00:00", "meta": {"OBJECT_NAME": "NNSS 19 (TRANSIT 19)", "OBJECT_ID": "1970-067A", "EPOCH": "2025-12-04T16:52:11.309088", "MEAN_MOTION": 13.51311923, "ECCENTRICITY": 0.0171091, "INCLINATION": 90.0056, "RA_OF_ASC_NODE": 234.5282, "ARG_OF_PERICENTER": 316.8387, "MEAN_ANOMALY": 41.9457, "EPHEMERIS_TYPE": 0, "CLASSIFICATION_TYPE": "U", "NORAD_CAT_ID": 4507, "ELEMENT_SET_NO": 999, "REV_AT_EPOCH": 72113, "BSTAR": 0.0003425, "MEAN_MOTION_DOT": 2.51e-06, "MEAN_MOTION_DDOT": 0}, "tle": {"line1": "1 04507U 70067A   25338.70290867  .00000251  00000+0  34250-3 0  9990", "line2": "2 04507  90.0056 234.5282 0171091 316.8387  41.9457 13.51311923721132"}}, "geometry": {"type": "Point", "coordinates": [-125.3995766896945, -85.55398820838496]}}, {"type": "Feature", "properties": {"norad_id": 6909, "name": "NNSS 20 (TRANSIT 20)", "group": "nnss", "lat": 31.257100922901405, "lon": 75.08280487277615, "alt_km": 913.6309027030784, "timestamp": "2025-12-04T23:34:05.991071+00:00", "meta": {"OBJECT_NAME": "NNSS 20 (TRANSIT 20)", "OBJECT_ID": "1973-081A", "EPOCH": "2025-12-04T12:21:15.782400", "MEAN_MOTION": 13.71428746, "ECCENTRICITY": 0.0156497, "INCLINATION": 89.8557, "RA_OF_ASC_NODE": 255.1775, "ARG_OF_PERICENTER": 102.6717, "MEAN_ANOMALY": 259.1993, "EPHEMERIS_TYPE": 0, "CLASSIFICATION_TYPE": "U", "NORAD_CAT_ID": 6909, "ELEMENT_SET_NO": 999, "REV_AT_EPOCH": 80248, "BSTAR": 0.00034816, "MEAN_MOTION_DOT": 3.53e-06, "MEAN_MOTION_DDOT": 0}, "tle": {"line1": "1 06909U 73081A   25338.51476600  .00000353  00000+0  34816-3 0  9998", "line2": "2 06909  89.8557 255.1775 0156497 102.6717 259.1993 13.71428746802489"}}, "geometry": {"type": "Point", "coordinates": [75.08280487277615, 31.257100922901405]}}, {"type": "Feature", "properties": {"norad_id": 10457, "name": "TRANSAT", "group": "nnss", "lat": -13.076739274166426, "lon": 78.78991671524398, "alt_km": 1093.5464225870628, "timestamp": "2025-12-04T23:34:05.991082+00:00", "meta": {"OBJECT_NAME": "TRANSAT", "OBJECT_ID": "1977-106A", "EPOCH": "2025-12-04T17:04:46.896960", "MEAN_MOTION": 13.48941715, "ECCENTRICITY": 0.0024668, "INCLINATION": 89.6484, "RA_OF_ASC_NODE": 78.8812, "ARG_OF_PERICENTER": 213.1849, "MEAN_ANOMALY": 261.512, "EPHEMERIS_TYPE": 0, "CLASSIFICATION_TYPE": "U", "NORAD_CAT_ID": 10457, "ELEMENT_SET_NO": 999, "REV_AT_EPOCH": 36635, "BSTAR": 0.00020686, "MEAN_MOTION_DOT": 1.4e-06, "MEAN_MOTION_DDOT": 0}, "tle": {"line1": "1 10457U 77106A   25338.71165390  .00000140  00000+0  20686-3 0  9990", "line2": "2 10457  89.6484  78.8812 0024668 213.1849 261.5120 13.48941715366359"}}, "geometry": {"type": "Point", "coordinates": [78.78991671524398, -13.076739274166426]}}, {"type": "Feature", "properties": {"norad_id": 12458, "name": "NOVA 1", "group": "nnss", "lat": -64.3596733086498, "lon": -88.19726937146487, "alt_km": 1185.6400696630362, "timestamp": "2025-12-04T23:34:05.991094+00:00", "meta": {"OBJECT_NAME": "NOVA 1", "OBJECT_ID": "1981-044A", "EPOCH": "2025-12-04T13:19:13.010016", "MEAN_MOTION": 13.23277117, "ECCENTRICITY": 0.0015616, "INCLINATION": 89.8523, "RA_OF_ASC_NODE": 91.5009, "ARG_OF_PERICENTER": 124.1641, "MEAN_ANOMALY": 247.0159, "EPHEMERIS_TYPE": 0, "CLASSIFICATION_TYPE": "U", "NORAD_CAT_ID": 12458, "ELEMENT_SET_NO": 999, "REV_AT_EPOCH": 15078, "BSTAR": 0.00015944, "MEAN_MOTION_DOT": 7.7e-07, "MEAN_MOTION_DDOT": 0}, "tle": {"line1": "1 12458U 81044A   25338.55501169  .00000077  00000+0  15944-3 0  9999", "line2": "2 12458  89.8523  91.5009 0015616 124.1641 247.0159 13.23277117150782"}}, "geometry": {"type": "Point", "coordinates": [-88.19726937146487, -64.3596733086498]}}, {"type": "Feature", "properties": {"norad_id": 15362, "name": "NOVA 3", "group": "nnss", "lat": 56.30362406353959, "lon": -99.37293697774442, "alt_km": 1182.8469618348045, "timestamp": "2025-12-04T23:34:05.991104+00:00", "meta": {"OBJECT_NAME": "NOVA 3", "OBJECT_ID": "1984-110A", "EPOCH": "2025-12-04T16:20:12.003936", "MEAN_MOTION": 13.23043125, "ECCENTRICITY": 0.0031157, "INCLINATION": 90.1225, "RA_OF_ASC_NODE": 80.4397, "ARG_OF_PERICENTER": 354.5615, "MEAN_ANOMALY": 134.4632, "EPHEMERIS_TYPE": 0, "CLASSIFICATION_TYPE": "U", "NORAD_CAT_ID": 15362, "ELEMENT_SET_NO": 999, "REV_AT_EPOCH": 98592, "BSTAR": 0.00017125, "MEAN_MOTION_DOT": 8e-07, "MEAN_MOTION_DDOT": 0}, "tle": {"line1": "1 15362U 84110A   25338.68069449  .00000080  00000+0  17125-3 0  9994", "line2": "2 15362  90.1225  80.4397 0031157 354.5615 134.4632 13.23043125985925"}}, "geometry": {"type": "Point", "coordinates": [-99.37293697774442, 56.30362406353959]}}, {"type": "Feature", "properties": {"norad_id": 15935, "name": "OSCAR 30", "group": "nnss", "lat": -22.68642778270391, "lon": -80.34858590897939, "alt_km": 1142.7645785322356, "timestamp": "2025-12-04T23:34:05.991115+00:00", "meta": {"OBJECT_NAME": "OSCAR 30", "OBJECT_ID": "1985-066A", "EPOCH": "2025-12-04T08:27:50.109120", "MEAN_MOTION": 13.36076288, "ECCENTRICITY": 0.0169359, "INCLINATION": 90.1647, "RA_OF_ASC_NODE": 99.7101, "ARG_OF_PERICENTER": 107.3134, "MEAN_ANOMALY": 308.0142, "EPHEMERIS_TYPE": 0, "CLASSIFICATION_TYPE": "U", "NORAD_CAT_ID": 15935, "ELEMENT_SET_NO": 999, "REV_AT_EPOCH": 96341, "BSTAR": 0.00025336, "MEAN_MOTION_DOT": 1.51e-06, "MEAN_MOTION_DDOT": 0}, "tle": {"line1": "1 15935U 85066A   25338.35266330  .00000151  00000+0  25336-3 0  9995", "line2": "2 15935  90.1647  99.7101 0169359 107.3134 308.0142 13.36076288963416"}}, "geometry": {"type": "Point", "coordinates": [-80.34858590897939, -22.68642778270391]}}, {"type": "Feature", "properties": {"norad_id": 15936, "name": "OSCAR 24", "group": "nnss", "lat": -79.6617285234669, "lon": 93.14841568675875, "alt_km": 1257.066416051718, "timestamp": "2025-12-04T23:34:05.991126+00:00", "meta": {"OBJECT_NAME": "OSCAR 24", "OBJECT_ID": "1985-066B", "EPOCH": "2025-12-04T09:56:28.925952", "MEAN_MOTION": 13.35933943, "ECCENTRICITY": 0.0170375, "INCLINATION": 90.1787, "RA_OF_ASC_NODE": 92.1582, "ARG_OF_PERICENTER": 113.5804, "MEAN_ANOMALY": 317.2745, "EPHEMERIS_TYPE": 0, "CLASSIFICATION_TYPE": "U", "NORAD_CAT_ID": 15936, "ELEMENT_SET_NO": 999, "REV_AT_EPOCH": 96532, "BSTAR": 0.00020656, "MEAN_MOTION_DOT": 1.25e-06, "MEAN_MOTION_DDOT": 0}, "tle": {"line1": "1 15936U 85066B   25338.41422368  .00000125  00000+0  20656-3 0  9999", "line2": "2 15936  90.1787  92.1582 0170375 113.5804 317.2745 13.35933943965327"}}, "geometry": {"type": "Point", "coordinates": [93.14841568675875, -79.6617285234669]}}]}